PRAETORIAN SDA_617      
1 65580U 25203R   26066.15523154  .00000070  00000+0  53343-4 0  9990
2 65580  81.3007 105.2364 0008739 107.3376 252.8736 13.83191134 24586
PRAETORIAN SDA_618      
1 65581U 25203S   26066.17164776  .00000261  00000+0  22082-3 0  9991
2 65581  81.2986 105.0660 0010964 107.0780 253.1579 13.84761683 24591
PRAETORIAN SDA_619      
1 65582U 25203T   26066.14602374  .00000292  00000+0  25220-3 0  9991
2 65582  81.3015 105.2323 0009359 106.0906 254.1282 13.83930507 25213
PRAETORIAN SDA_620      
1 65583U 25203U   26066.15472056  .00000249  00000+0  21428-3 0  9993
2 65583  81.2994 105.2175 0008841 105.8983 254.3148 13.83704997 24585
PRAETORIAN SDA_621      
1 65584U 25203V   26066.13894123  .00000080  00000+0  61365-4 0  9993
2 65584  81.2991 105.1831 0008672 102.1468 258.0661 13.83787106 24585
PRAETORIAN SDA_601      
1 65585U 25203W   26066.15009535  .00000249  00000+0  21513-3 0  9998
2 65585  81.3006 105.3852 0006545 114.6259 245.5579 13.83484660 24579
