[{"OBJECT_NAME":"PRAETORIAN SDA_617","OBJECT_ID":"2025-203R","EPOCH":"2026-03-07T03:43:32.005056","MEAN_MOTION":13.83191134,"ECCENTRICITY":0.0008739,"INCLINATION":81.3007,"RA_OF_ASC_NODE":105.2364,"ARG_OF_PERICENTER":107.3376,"MEAN_ANOMALY":252.8736,"EPHEMERIS_TYPE":0,"CLASSIFICATION_TYPE":"U","NORAD_CAT_ID":65580,"ELEMENT_SET_NO":999,"REV_AT_EPOCH":2458,"BSTAR":5.3343e-5,"MEAN_MOTION_DOT":7.0e-7,"MEAN_MOTION_DDOT":0},{"OBJECT_NAME":"PRAETORIAN SDA_618","OBJECT_ID":"2025-203S","EPOCH":"2026-03-07T04:07:10.366464","MEAN_MOTION":13.84761683,"ECCENTRICITY":0.0010964,"INCLINATION":81.2986,"RA_OF_ASC_NODE":105.066,"ARG_OF_PERICENTER":107.078,"MEAN_ANOMALY":253.1579,"EPHEMERIS_TYPE":0,"CLASSIFICATION_TYPE":"U","NORAD_CAT_ID":65581,"ELEMENT_SET_NO":999,"REV_AT_EPOCH":2459,"BSTAR":0.00022082,"MEAN_MOTION_DOT":2.61e-6,"MEAN_MOTION_DDOT":0},{"OBJECT_NAME":"PRAETORIAN SDA_619","OBJECT_ID":"2025-203T","EPOCH":"2026-03-07T03:30:16.451136","MEAN_MOTION":13.83930507,"ECCENTRICITY":0.0009359,"INCLINATION":81.3015,"RA_OF_ASC_NODE":105.2323,"ARG_OF_PERICENTER":106.0906,"MEAN_ANOMALY":254.1282,"EPHEMERIS_TYPE":0,"CLASSIFICATION_TYPE":"U","NORAD_CAT_ID":65582,"ELEMENT_SET_NO":999,"REV_AT_EPOCH":2521,"BSTAR":0.0002522,"MEAN_MOTION_DOT":2.92e-6,"MEAN_MOTION_DDOT":0},{"OBJECT_NAME":"PRAETORIAN SDA_620","OBJECT_ID":"2025-203U","EPOCH":"2026-03-07T03:42:47.856384","MEAN_MOTION":13.83704997,"ECCENTRICITY":0.0008841,"INCLINATION":81.2994,"RA_OF_ASC_NODE":105.2175,"ARG_OF_PERICENTER":105.8983,"MEAN_ANOMALY":254.3148,"EPHEMERIS_TYPE":0,"CLASSIFICATION_TYPE":"U","NORAD_CAT_ID":65583,"ELEMENT_SET_NO":999,"REV_AT_EPOCH":2458,"BSTAR":0.00021428,"MEAN_MOTION_DOT":2.49e-6,"MEAN_MOTION_DDOT":0},{"OBJECT_NAME":"PRAETORIAN SDA_621","OBJECT_ID":"2025-203V","EPOCH":"2026-03-07T03:20:04.522272","MEAN_MOTION":13.83787106,"ECCENTRICITY":0.0008672,"INCLINATION":81.2991,"RA_OF_ASC_NODE":105.1831,"ARG_OF_PERICENTER":102.1468,"MEAN_ANOMALY":258.0661,"EPHEMERIS_TYPE":0,"CLASSIFICATION_TYPE":"U","NORAD_CAT_ID":65584,"ELEMENT_SET_NO":999,"REV_AT_EPOCH":2458,"BSTAR":6.1365e-5,"MEAN_MOTION_DOT":8.0e-7,"MEAN_MOTION_DDOT":0},{"OBJECT_NAME":"PRAETORIAN SDA_601","OBJECT_ID":"2025-203W","EPOCH":"2026-03-07T03:36:08.238240","MEAN_MOTION":13.8348466,"ECCENTRICITY":0.0006545,"INCLINATION":81.3006,"RA_OF_ASC_NODE":105.3852,"ARG_OF_PERICENTER":114.6259,"MEAN_ANOMALY":245.5579,"EPHEMERIS_TYPE":0,"CLASSIFICATION_TYPE":"U","NORAD_CAT_ID":65585,"ELEMENT_SET_NO":999,"REV_AT_EPOCH":2457,"BSTAR":0.00021513,"MEAN_MOTION_DOT":2.49e-6,"MEAN_MOTION_DDOT":0}]
